# FY3D (LEO)
1 43010U 17072A   25199.15489350  .00000064  00000+0  51937-4 0  9994
2 43010  98.9644 163.4473 0000599 329.1474  30.9667 14.19638484397593

# FY3E (LEO)
1 49008U 21062A   25199.11255492 -.00000001  00000+0  20461-4 0  9995
2 49008  98.7426 201.3733 0001527  17.4487 342.6741 14.19869915209173

# FY3F (LEO)
1 57490U 23111A   25199.17082137  .00000024  00000+0  32057-4 0  9994
2 57490  98.7256 269.7024 0001709  68.0477 292.0881 14.20052402101465

# FY3G (LEO)
1 56232U 23055A   25199.20413497  .00021959  00000+0  34076-3 0  9997
2 56232  49.9947 268.2567 0018970 257.5482 102.3363 15.53665812128096

# C2E1 (LEO)
1 44349U 19036L   25199.17724942  .00003220  00000+0  20866-3 0  9996
2 44349  23.9971 127.1070 0003580 288.5242  71.4871 15.03204381334591

# C2E2 (LEO)
1 44351U 19036N   25198.49079324  .00002768  00000+0  17612-3 0  9991
2 44351  23.9977 248.1858 0003546 193.1995 166.8415 15.03211429333410

# C2E3 (LEO)
1 44343U 19036E   25198.50386771  .00003492  00000+0  21165-3 0  9994
2 44343  23.9999 315.5646 0000348 256.9955 103.0509 15.05945115332661

# C2E4 (LEO)
1 44350U 19036M   25198.33642905  .00002824  00000+0  17994-3 0  9990
2 44350  23.9971 194.9282 0003820 219.2089 140.8137 15.03247972333821

# C2E5 (LEO)
1 44358U 19036V   25198.80012909  .00003254  00000+0  21089-3 0  9993
2 44358  24.0007   6.6854 0003544  42.5225 317.5552 15.03255780332163

# C2E6 (LEO)
1 44353U 19036Q   25198.88915831  .00003171  00000+0  20503-3 0  9990
2 44353  23.9989  66.2922 0002148 222.1324 137.9013 15.03235850331653

# G01 (GNSS)
1 62339U 24242A   25198.79717678 -.00000080  00000+0  00000+0 0  9991
2 62339  54.9672 347.7296 0006093 347.8009  10.6077  2.00558802  4549

# G02 (GNSS)
1 28474U 04045A   25198.34428880 -.00000079  00000+0  00000+0 0  9995
2 28474  55.3102 338.3710 0165982 304.5492 117.6733  2.00562668151703

# G03 (GNSS)
1 40294U 14068A   25198.37740919 -.00000051  00000+0  00000+0 0  9998
2 40294  56.7465  43.8807 0061856  68.0091 292.7054  2.00555650 78488

# G04 (GNSS)
1 43873U 18109A   25199.20172255 -.00000022  00000+0  00000+0 0  9997
2 43873  55.4801 105.3752 0033921 196.0521 336.3671  2.00571868 48328

# G05 (GNSS)
1 35752U 09043A   25198.58922176 -.00000055  00000+0  00000+0 0  9992
2 35752  55.9871  40.6213 0055781  79.6226 290.8443  2.00573927116657

# G06 (GNSS)
1 39741U 14026A   25198.41668269 -.00000076  00000+0  00000+0 0  9996
2 39741  56.6379 344.5413 0034700 319.0876  40.6579  2.00571823 81822

# G07 (GNSS)
1 32711U 08012A   25199.09402731  .00000075  00000+0  00000+0 0  9997
2 32711  54.4668 163.2652 0200143 243.7271 114.1849  2.00559437127058

# G08 (GNSS)
1 40730U 15033A   25198.17864796 -.00000027  00000+0  00000+0 0  9997
2 40730  54.2515 280.8830 0104156  25.2338 335.3316  2.00573263 73278

# G09 (GNSS)
1 40105U 14045A   25198.00807444 -.00000012  00000+0  00000+0 0  9998
2 40105  55.1338 101.8349 0030594 115.9052 244.4463  2.00563101 79356

# G10 (GNSS)
1 41019U 15062A   25197.73605506 -.00000050  00000+0  00000+0 0  9999
2 41019  56.7221  43.7616 0104151 227.9333 131.2324  2.00566875 71102

# G11 (GNSS)
1 48859U 21054A   25198.47290661 -.00000079  00000+0  00000+0 0  9991
2 48859  55.3075 345.9040 0021064 225.8415 142.3846  2.00561561 30047

# G12 (GNSS)
1 29601U 06052A   25198.37384562  .00000082  00000+0  00000+0 0  9992
2 29601  55.0084 227.2817 0084702  86.7647 274.2634  2.00564918136698

# G13 (GNSS)
1 24876U 97035A   25198.15534119 -.00000001  00000+0  00000+0 0  9995
2 24876  55.8208 111.6824 0092807  54.8680 306.0195  2.00562431205034

# G14 (GNSS)
1 46826U 20078A   25198.46359310  .00000085  00000+0  00000+0 0  9990
2 46826  54.0535 224.3557 0061344 202.7006 327.6941  2.00558315 34797

# G15 (GNSS)
1 32260U 07047A   25195.68782677 -.00000005  00000+0  00000+0 0  9998
2 32260  53.8454  94.0002 0162576  82.1680 279.7230  2.00570816130048

# G16 (GNSS)
1 27663U 03005A   25199.07603065  .00000085  00000+0  00000+0 0  9996
2 27663  54.9655 228.2460 0142650  50.2963 320.7449  2.00552412164604

# G17 (GNSS)
1 28874U 05038A   25198.77081098 -.00000038  00000+0  00000+0 0  9990
2 28874  55.1547 286.6563 0132978 290.4038  44.2796  2.00558030145128

# G18 (GNSS)
1 44506U 19056A   25198.84269038 -.00000080  00000+0  00000+0 0  9992
2 44506  55.7742 344.4209 0054298 193.7763 337.6466  2.00562403 43364

# G19 (GNSS)
1 28190U 04009A   25198.33982013 -.00000042  00000+0  00000+0 0  9992
2 28190  55.1103 289.1983 0106616 162.8230 197.0182  2.00566330156262

# G20 (GNSS)
1 26360U 00025A   25198.54465567 -.00000060  00000+0  00000+0 0  9996
2 26360  54.9560  32.8278 0035542 232.5471 135.9450  2.00578793184563

# G21 (GNSS)
1 64202U 25116A   25197.54239454 -.00000052  00000+0  00000+0 0  9995
2 64202  54.9938  44.6649 0001190 303.1059  59.1936  2.00568632  1140

# G22 (GNSS)
1 26407U 00040A   25198.49201507  .00000081  00000+0  00000+0 0  9993
2 26407  54.9312 228.4591 0132647 298.9545 234.0294  2.00566153183229

# G23 (GNSS)
1 45854U 20041A   25196.44281440 -.00000047  00000+0  00000+0 0  9993
2 45854  56.4386  42.0368 0054635 198.9471 344.2015  2.00565719 37289

# G24 (GNSS)
1 38833U 12053A   25198.77451152  .00000066  00000+0  00000+0 0  9993
2 38833  53.5422 157.2964 0167738  61.1445 300.5050  2.00563271 92735

# G25 (GNSS)
1 36585U 10022A   25198.55186744  .00000089  00000+0  00000+0 0  9992
2 36585  54.3337 222.0452 0120666  64.0827  40.3874  2.00571407110889

# G26 (GNSS)
1 40534U 15013A   25199.01332423  .00000095  00000+0  00000+0 0  9992
2 40534  53.2315 218.0018 0099617  35.3209 325.3826  2.00571254 75547

# G27 (GNSS)
1 39166U 13023A   25198.14006427 -.00000030  00000+0  00000+0 0  9995
2 39166  54.7721 282.6063 0132709  48.1622 313.0209  2.00565745 89150

# G28 (GNSS)
1 55268U 23009A   25197.90877987  .00000080  00000+0  00000+0 0  9995
2 55268  55.0997 161.6889 0003735 330.2964  30.1995  2.00566683 18526

# G29 (GNSS)
1 32384U 07062A   25195.75033198 -.00000027  00000+0  00000+0 0  9991
2 32384  55.3050 287.7002 0032555 160.0216  13.6908  2.00569732128745

# G30 (GNSS)
1 39533U 14008A   25198.13832327  .00000078  00000+0  00000+0 0  9993
2 39533  53.6192 162.9826 0078771 226.2661 133.0595  2.00565410 82964

# G31 (GNSS)
1 29486U 06042A   25198.95871881  .00000078  00000+0  00000+0 0  9996
2 29486  54.6875 164.6026 0104666  47.3039 324.5536  2.00560705137846

# G32 (GNSS)
1 41328U 16007A   25198.81518196 -.00000021  00000+0  00000+0 0  9998
2 41328  55.3162 102.7302 0087928 242.8418 116.2917  2.00568188 69134

# C06 (GNSS)
1 36828U 10036A   25197.89418611 -.00000079  00000+0  00000+0 0  9994
2 36828  54.2806 165.9950 0049461 218.0207 340.4203  1.00267972 54732

# C04 (GNSS)
1 37210U 10057A   25198.84489122 -.00000108  00000+0  00000+0 0  9997
2 37210   2.8134  70.4182 0005549 169.0380 160.5509  1.00269820 53939

# C07 (GNSS)
1 37256U 10068A   25198.65004315 -.00000202  00000+0  00000+0 0  9990
2 37256  48.1498 275.9768 0048178 214.0675 147.4972  1.00279542 53446

# C14 (GNSS)
1 38775U 12050B   25198.30768269 -.00000042  00000+0  00000+0 0  9999
2 38775  56.2452  73.9920 0012965 353.7312   6.3176  1.86230942 87073

# C01 (GNSS)
1 44231U 19027A   25198.85600122 -.00000241  00000+0  00000+0 0  9998
2 44231   1.7656  75.2123 0003665 249.5317  63.8737  1.00271710 22728

# C24 (GNSS)
1 43582U 18062B   25198.44744414  .00000113  00000+0  00000+0 0  9999
2 43582  54.1006 193.6733 0004764   2.3537 357.6552  1.86229410 47404

# C26 (GNSS)
1 43602U 18067A   25198.38358693  .00000112  00000+0  00000+0 0  9999
2 43602  54.1938 192.3930 0007345  23.9965 336.0423  1.86227666 46888

# C25 (GNSS)
1 43603U 18067B   25197.44379243  .00000107  00000+0  00000+0 0  9994
2 43603  54.1910 192.3892 0004204   6.4475 353.5603  1.86227167 46890

# C32 (GNSS)
1 43622U 18072A   25199.01299709 -.00000047  00000+0  00000+0 0  9998
2 43622  56.3263  73.7115 0005903 325.7165  34.3085  1.86231327 46437

# C33 (GNSS)
1 43623U 18072B   25198.34152314 -.00000042  00000+0  00000+0 0  9999
2 43623  56.3276  73.7275 0005105   3.1644 356.9038  1.86231315 46418

# C35 (GNSS)
1 43647U 18078A   25197.42712337 -.00000071  00000+0  00000+0 0  9998
2 43647  54.3930 311.7382 0006385  31.1704 328.8918  1.86232158 45906

# C34 (GNSS)
1 43648U 18078B   25198.09328804 -.00000075  00000+0  00000+0 0  9999
2 43648  54.3880 311.7165 0003346  48.8853 311.1668  1.86232238 45933

# C59 (GNSS)
1 43683U 18085A   25198.85600122 -.00000272  00000+0  00000+0 0  9995
2 43683   2.7408 107.3751 0004179 355.7244 281.0387  1.00272423 24705

# C36 (GNSS)
1 43706U 18093A   25198.24918715  .00000112  00000+0  00000+0 0  9995
2 43706  54.1841 193.6584 0010284 286.7209  73.1724  1.86228122 45285

# C37 (GNSS)
1 43707U 18093B   25198.11134545  .00000111  00000+0  00000+0 0  9992
2 43707  54.1849 193.6549 0008193 313.0146  46.9227  1.86229698 45291

# C38 (GNSS)
1 44204U 19023A   25198.45303081 -.00000212  00000+0  00000+0 0  9992
2 44204  58.2205  41.1048 0023567 215.7687 319.9439  1.00288000  3858

# C39 (GNSS)
1 44337U 19035A   25198.79518344 -.00000091  00000+0  00000+0 0  9994
2 44337  55.2157 161.8008 0035671 210.7023 328.7545  1.00260996 22314

# C46 (GNSS)
1 44542U 19061A   25198.18247670  .00000112  00000+0  00000+0 0  9998
2 44542  54.4117 194.0254 0008245 350.5843   9.4070  1.86229172 39555

# C45 (GNSS)
1 44543U 19061B   25197.14512469  .00000106  00000+0  00000+0 0  9998
2 44543  54.4105 194.0288 0005685 329.9835 327.2813  1.86229220 39534

# C40 (GNSS)
1 44709U 19073A   25198.64106585 -.00000200  00000+0  00000+0 0  9995
2 44709  55.3723 284.5130 0045193 189.4600 170.5299  1.00289577 21100

# C44 (GNSS)
1 44793U 19078A   25196.41357157 -.00000065  00000+0  00000+0 0  9998
2 44793  54.2405 311.6574 0005344  40.8175 319.2478  1.86232136 38374

# C43 (GNSS)
1 44794U 19078B   25198.15862152 -.00000075  00000+0  00000+0 0  9999
2 44794  54.2124 311.5642 0003285  38.4793 321.5673  1.86227636 38416
